{
    "links": {
        "self": "http://www.neowsapp.com/rest/v1/neo/3829427?api_key=iIulBulltgU6a56xZRHN4H3l9WmuAYTsLGpBGhQ2"
    },
    "id": "3829427",
    "neo_reference_id": "3829427",
    "name": "(2018 RP5)",
    "designation": "2018 RP5",
    "nasa_jpl_url": "http://ssd.jpl.nasa.gov/sbdb.cgi?sstr=3829427",
    "absolute_magnitude_h": 26.4,
    "estimated_diameter": {
        "kilometers": {
            "estimated_diameter_min": 0.0139493823,
            "estimated_diameter_max": 0.0311917671
        },
        "meters": {
            "estimated_diameter_min": 13.9493822934,
            "estimated_diameter_max": 31.1917670523
        },
        "miles": {
            "estimated_diameter_min": 0.0086677416,
            "estimated_diameter_max": 0.0193816595
        },
        "feet": {
            "estimated_diameter_min": 45.7656914036,
            "estimated_diameter_max": 102.3351970157
        }
    },
    "is_potentially_hazardous_asteroid": false,
    "close_approach_data": [
        {
            "close_approach_date": "2018-09-11",
            "close_approach_date_full": "2018-Sep-11 14:05",
            "epoch_date_close_approach": 1536674700000,
            "relative_velocity": {
                "kilometers_per_second": "13.6590694125",
                "kilometers_per_hour": "49172.6498851015",
                "miles_per_hour": "30553.9723688843"
            },
            "miss_distance": {
                "astronomical": "0.0111286956",
                "lunar": "4.3290625884",
                "kilometers": "1664829.157638372",
                "miles": "1034476.8692266536"
            },
            "orbiting_body": "Earth"
        }
    ],
    "orbital_data": {
        "orbit_id": "7",
        "orbit_determination_date": "2018-10-06 06:30:11",
        "first_observation_date": "2018-09-13",
        "last_observation_date": "2018-10-05",
        "data_arc_in_days": 22,
        "observations_used": 51,
        "orbit_uncertainty": "7",
        "minimum_orbit_intersection": ".00672731",
        "jupiter_tisserand_invariant": "3.269",
        "epoch_osculation": "2459000.5",
        "eccentricity": ".6227081635837517",
        "semi_major_axis": "2.341781433675457",
        "inclination": "4.207727347328165",
        "ascending_node_longitude": "352.5546511887371",
        "orbital_period": "1308.934650317036",
        "perihelion_distance": ".8835350175968878",
        "perihelion_argument": "307.6462895025794",
        "aphelion_distance": "3.800027849754025",
        "perihelion_time": "2459647.411845256842",
        "mean_anomaly": "182.0780050126602",
        "mean_motion": ".2750328291124425",
        "equinox": "J2000",
        "orbit_class": {
            "orbit_class_type": "APO",
            "orbit_class_description": "Near-Earth asteroid orbits which cross the Earth’s orbit similar to that of 1862 Apollo",
            "orbit_class_range": "a (semi-major axis) > 1.0 AU; q (perihelion) < 1.017 AU"
        }
    },
    "is_sentry_object": false
}